2026-065A               
1 68408U 26065A   26087.94058999  .00001379  00000+0  70532-4 0  9991
2 68408  97.4112 330.1101 0015809 287.1112  72.8390 15.18211376    88
